#aV2019  4 22  0  0  0.00000000     288 DD+AD WGS84 FIT  NGA
## 2050  86400.00000000   300.00000000 58595 0.0000000000000
+   31     1  2  3  5  6  7  8  9 10 11 12 13 14 15 16 17 18
+         19 20 21 22 23 24 25 26 27 28 29 30 31 32  0  0  0
+          0  0  0  0  0  0  0  0  0  0  0  0  0  0  0  0  0
+          0  0  0  0  0  0  0  0  0  0  0  0  0  0  0  0  0
+          0  0  0  0  0  0  0  0  0  0  0  0  0  0  0  0  0
++         2  2  2  2  2  2  2  2  2  2  2  2  2  2  2  2  2
++         2  2  2  2  2  2  2  2  2  2  2  2  2  2  0  0  0
++         0  0  0  0  0  0  0  0  0  0  0  0  0  0  0  0  0
++         0  0  0  0  0  0  0  0  0  0  0  0  0  0  0  0  0
++         0  0  0  0  0  0  0  0  0  0  0  0  0  0  0  0  0
%c cc cc ccc ccc cccc cccc cccc cccc ccccc ccccc ccccc ccccc
%c cc cc ccc ccc cccc cccc cccc cccc ccccc ccccc ccccc ccccc
%f  0.0000000  0.000000000  0.00000000000  0.000000000000000
%f  0.0000000  0.000000000  0.00000000000  0.000000000000000
%i    0    0    0    0      0      0      0      0         0
%i    0    0    0    0      0      0      0      0         0
/*      NGA, ST. LOUIS,MO.                                  
/*   EPHEMERIS COMPUTED FROM 2 DAYS OF DATA                 
/*   EPOCHA v3 SMOOTHER                                     
/*   G1762 IERS2010 SATAF SATAPC                            
*  2019  4 22  0 50  0.00000000
P  1  22604.887529  14279.027102   -388.714202   -206.986945                    
V  1  -1331.109686   1631.788241 -31852.628289     -0.083486                    
P  2  -6554.902634 -18411.805768  18664.570296   -194.877131                    
V  2  20473.174186   9266.952869  16728.822425     -0.093708                    
P  3  12508.008033  14411.960570  18473.623578    188.316274                    
V  3  -2029.511497  23454.280671 -16806.178567      0.001028                    
P  5  -2628.577880 -26082.024861  -3634.675181      1.095373                    
V  5   3305.515237  -4509.592054  31176.116331     -0.000656                    
P  6   6918.588127 -13251.880972  21997.991016    224.837887                    
V  6  23802.771162  14321.819872   1177.231042     -0.095576                    
P  7  23349.320922   4746.431916 -11957.676619     -9.480238                    
V  7  11861.683788  10096.468243  26141.827483     -0.074865                    
P  8  10423.310566  11182.439956 -21702.497875   -140.778487                    
V  8 -23923.154342  13745.951274  -4200.216894     -0.014205                    
P  9  24241.606160  -6718.037436   8501.534826    424.744622                    
V  9  -8075.521986   7793.074137  29031.305811     -0.065712                    
P 10 -11433.739080  17828.503623 -15841.713853     66.722918                    
V 10  -1591.051282 -20346.533207 -21855.552986     -0.099233                    
P 11  22235.886876  10430.068703 -10327.001388   -621.888154                    
V 11 -12901.343780   2584.060962 -26786.842372      0.074796                    
P 12 -10731.023781 -15914.973431  18221.849281    249.173720                    
V 12   3293.943928 -23253.726105 -17984.436197     -0.033658                    
P 13   -890.086728 -15604.664188 -21580.804440    -66.828357                    
V 13  25399.780345  -9517.867266   5906.503920      0.015649                    
P 14 -14128.345289  17376.999987  14451.135202    -83.555431                    
V 14 -17202.628119   5338.893572 -23940.965327      0.015071                    
P 15 -13311.521583  -9998.309396 -21011.145103   -317.123479                    
V 15  21392.221757 -15059.800310  -6074.039158      0.020366                    
P 16    687.943979  25810.510101  -5310.552775    -34.417047                    
V 16  -3093.476941   6269.580448  31582.138091     -0.028149                    
P 17  20732.143510 -15117.149881   7085.963106     42.761076                    
V 17   8476.587825  -1873.878033 -30636.235030      0.059999                    
P 18  17631.774177  17601.475817  -9885.174656     46.402543                    
V 18 -11580.353081  -3469.204079 -28095.859219      0.035293                    
P 19  15793.194774 -16404.124745  13445.215947   -327.900135                    
V 19  16794.946457  -5215.855906 -25440.995173      0.044639                    
P 20 -14591.733586   8527.234144 -20564.580321    524.153298                    
V 20  -3539.259364 -25810.975890  -8379.718619      0.003057                    
P 21 -21291.390027    818.507519 -14967.476140   -207.655937                    
V 21 -16883.353977 -11978.832633  22334.601576      0.075964                    
P 22  10845.038095  20556.374373  13158.835039   -687.925431                    
V 22  -2182.510825  16507.480058 -24355.646055     -0.067880                    
P 23  20010.279695   3344.470829  17674.337589   -189.270019                    
V 23 -18051.500839  12154.167015  18078.080561      0.015159                    
P 24 -21606.976942 -15224.044299  -4194.154516    -65.091115                    
V 24   5982.062910   -323.273485 -30459.803289     -0.004735                    
P 25 -14804.230345  -2507.309476  21711.226617   -748.270407                    
V 25    875.020001 -28015.547763  -2363.565740     -0.042557                    
P 26  -4294.988207  25405.001362   6027.392641    182.131670                    
V 26  -3141.534439  -7727.999366  30407.402453      0.098492                    
P 27  -1452.783349  16647.304844 -20669.888127   -113.928675                    
V 27 -23278.529174  11716.804358  11420.039685     -0.088474                    
P 28  12540.868241 -16772.863755 -15785.995864    767.582592                    
V 28   -821.648272  21138.119011 -22176.009581      0.001825                    
P 29 -23236.039928   1467.210040  12755.300707    219.778125                    
V 29  13999.621021  -8324.926583  26393.132050     -0.090511                    
P 30  17256.927349  -5486.748586 -19469.555346    -90.824740                    
V 30  19807.989147  14941.744105  13148.543803     -0.069151                    
P 31  -6298.065851  13974.254130  21660.770298     43.409482                    
V 31 -23337.103150 -14636.313278   3092.272941     -0.026595                    
P 32 -18307.986560  17123.438165   8651.940589   -121.660519                    
V 32 -10923.429021   2883.318147 -29117.900287      0.175180                    
EOF
